CELESTIS-17 & SHERPA-FX1
1 47486U 21006CB  26068.64311433  .00007207  00000+0  24301-3 0  9993
2 47486  97.2397 112.1052 0006630 178.1385 181.9882 15.30994801284065
STARLINK-35527          
1 66092U 25236G   26068.38276250  .00019631  00000+0  67299-3 0  9991
2 66092  53.1581 105.5807 0000990  91.5245 268.5869 15.30209333 22892
